$$SOE
2460154.500000000, A.D. 2023-Jul-29 00:00:00.0000, 2.131151054074653E+07, 4.126941838419517E+08, -7.670546506546766E+07,
2460161.500000000, A.D. 2023-Aug-05 00:00:00.0000, 1.031674950203871E+07, 4.139971946622486E+08, -7.707544410261750E+07,
2460168.500000000, A.D. 2023-Aug-12 00:00:00.0000, -6.846829983184950E+05, 4.150313100643826E+08, -7.739535405637227E+07,
2460175.500000000, A.D. 2023-Aug-19 00:00:00.0000, -1.168564974239367E+07, 4.157976711430876E+08, -7.766532558366759E+07,
2460182.500000000, A.D. 2023-Aug-26 00:00:00.0000, -2.267910989105724E+07, 4.162976098680194E+08, -7.788552615568039E+07,
2460189.500000000, A.D. 2023-Sep-02 00:00:00.0000, -3.365812423043846E+07, 4.165326428843939E+08, -7.805615895628382E+07,
2460196.500000000, A.D. 2023-Sep-09 00:00:00.0000, -4.461586001914074E+07, 4.165044651146369E+08, -7.817746177118202E+07,
2460203.500000000, A.D. 2023-Sep-16 00:00:00.0000, -5.554559527351070E+07, 4.162149431252577E+08, -7.824970589203635E+07,
2460210.500000000, A.D. 2023-Sep-23 00:00:00.0000, -6.644072208184287E+07, 4.156661085671737E+08, -7.827319505437265E+07,
2460217.500000000, A.D. 2023-Sep-30 00:00:00.0000, -7.729474929554702E+07, 4.148601529017072E+08, -7.824826428513695E+07,
2460224.500000000, A.D. 2023-Oct-07 00:00:00.0000, -8.810130695867023E+07, 4.137994228896636E+08, -7.817527849250159E+07,
2460231.500000000, A.D. 2023-Oct-14 00:00:00.0000, -9.885415144443694E+07, 4.124864135454886E+08, -7.805463116623361E+07,
2460238.500000000, A.D. 2023-Oct-21 00:00:00.0000, -1.095471680834224E+08, 4.109237601753541E+08, -7.788674335652933E+07,
2460245.500000000, A.D. 2023-Oct-28 00:00:00.0000, -1.201743727194929E+08, 4.091142317784923E+08, -7.767206262035143E+07,
2460252.500000000, A.D. 2023-Nov-04 00:00:00.0000, -1.307299134531492E+08, 4.070607250566991E+08, -7.741106188651845E+07,
2460259.500000000, A.D. 2023-Nov-11 00:00:00.0000, -1.412080724052302E+08, 4.047662584442420E+08, -7.710423830661474E+07,
2460266.500000000, A.D. 2023-Nov-18 00:00:00.0000, -1.516032672928635E+08, 4.022339661043122E+08, -7.675211211839578E+07,
2460273.500000000, A.D. 2023-Nov-25 00:00:00.0000, -1.619100527572701E+08, 3.994670919234393E+08, -7.635522552747294E+07,
2460280.500000000, A.D. 2023-Dec-02 00:00:00.0000, -1.721231214292247E+08, 3.964689835007431E+08, -7.591414161185439E+07,
2460287.500000000, A.D. 2023-Dec-09 00:00:00.0000, -1.822373046694684E+08, 3.932430860815547E+08, -7.542944326301444E+07,
2460294.500000000, A.D. 2023-Dec-16 00:00:00.0000, -1.922475727116077E+08, 3.897929364570504E+08, -7.490173219119698E+07,
2460301.500000000, A.D. 2023-Dec-23 00:00:00.0000, -2.021490338733133E+08, 3.861221575264442E+08, -7.433162797332209E+07,
2460308.500000000, A.D. 2023-Dec-30 00:00:00.0000, -2.119369341893657E+08, 3.822344545799326E+08, -7.371976693744823E+07,
2460315.500000000, A.D. 2024-Jan-06 00:00:00.0000, -2.216066592496889E+08, 3.781336109491078E+08, -7.306680091601606E+07,
2460322.500000000, A.D. 2024-Jan-13 00:00:00.0000, -2.311537350788683E+08, 3.738234812199908E+08, -7.237339630629985E+07,
2460329.500000000, A.D. 2024-Jan-20 00:00:00.0000, -2.405738268465167E+08, 3.693079850942451E+08, -7.164023329827821E+07,
2460336.500000000, A.D. 2024-Jan-27 00:00:00.0000, -2.498627374501150E+08, 3.645911025542857E+08, -7.086800503181916E+07,
2460343.500000000, A.D. 2024-Feb-03 00:00:00.0000, -2.590164064095538E+08, 3.596768693853552E+08, -7.005741672189020E+07,
2460350.500000000, A.D. 2024-Feb-10 00:00:00.0000, -2.680309088071941E+08, 3.545693727633390E+08, -6.920918480109040E+07,
2460357.500000000, A.D. 2024-Feb-17 00:00:00.0000, -2.769024541465064E+08, 3.492727469160049E+08, -6.832403609187433E+07,
2460364.500000000, A.D. 2024-Feb-24 00:00:00.0000, -2.856273851049966E+08, 3.437911688724616E+08, -6.740270701105353E+07,
2460371.500000000, A.D. 2024-Mar-02 00:00:00.0000, -2.942021761631697E+08, 3.381288542683665E+08, -6.644594281242695E+07,
2460378.500000000, A.D. 2024-Mar-09 00:00:00.0000, -3.026234319810345E+08, 3.322900531438168E+08, -6.545449688574724E+07,
2460385.500000000, A.D. 2024-Mar-16 00:00:00.0000, -3.108878851364095E+08, 3.262790459303785E+08, -6.442913013223737E+07,
2460392.500000000, A.D. 2024-Mar-23 00:00:00.0000, -3.189923933379641E+08, 3.201001407348868E+08, -6.337061031647053E+07,
2460399.500000000, A.D. 2024-Mar-30 00:00:00.0000, -3.269339383637048E+08, 3.137576718922558E+08, -6.227971119143854E+07,
2460406.500000000, A.D. 2024-Apr-06 00:00:00.0000, -3.347096264764037E+08, 3.072559964189318E+08, -6.115721169537298E+07,
2460413.500000000, A.D. 2024-Apr-13 00:00:00.0000, -3.423166867702478E+08, 3.005994891994218E+08, -6.000389547629215E+07,
2460420.500000000, A.D. 2024-Apr-20 00:00:00.0000, -3.497524684089452E+08, 2.937925395777998E+08, -5.882055043738779E+07,
2460427.500000000, A.D. 2024-Apr-27 00:00:00.0000, -3.570144382809294E+08, 2.868395487906188E+08, -5.760796821006574E+07,
2460434.500000000, A.D. 2024-May-04 00:00:00.0000, -3.641001789902650E+08, 2.797449275355402E+08, -5.636694361975775E+07,
2460441.500000000, A.D. 2024-May-11 00:00:00.0000, -3.710073869507046E+08, 2.725130935705612E+08, -5.509827417385904E+07,
2460448.500000000, A.D. 2024-May-18 00:00:00.0000, -3.777338705066609E+08, 2.651484693619092E+08, -5.380275957670220E+07,
2460455.500000000, A.D. 2024-May-25 00:00:00.0000, -3.842775480619469E+08, 2.576554797699911E+08, -5.248120127359446E+07,
2460462.500000000, A.D. 2024-Jun-01 00:00:00.0000, -3.906364461616917E+08, 2.500385497124918E+08, -5.113440203325333E+07,
2460469.500000000, A.D. 2024-Jun-08 00:00:00.0000, -3.968086972859471E+08, 2.423021017780989E+08, -4.976316559221652E+07,
2460476.500000000, A.D. 2024-Jun-15 00:00:00.0000, -4.027925369600149E+08, 2.344505543321426E+08, -4.836829635238537E+07,
2460483.500000000, A.D. 2024-Jun-22 00:00:00.0000, -4.085863011915329E+08, 2.264883212853643E+08, -4.695059894265179E+07,
2460490.500000000, A.D. 2024-Jun-29 00:00:00.0000, -4.141884263614864E+08, 2.184198117020755E+08, -4.551087759837144E+07,
2460497.500000000, A.D. 2024-Jul-06 00:00:00.0000, -4.195974489277908E+08, 2.102494267746782E+08, -4.404993580252802E+07,
2460504.500000000, A.D. 2024-Jul-13 00:00:00.0000, -4.248120029932404E+08, 2.019815569847585E+08, -4.256857613512095E+07,
2460511.500000000, A.D. 2024-Jul-20 00:00:00.0000, -4.298308177260286E+08, 1.936205805946610E+08, -4.106760005376104E+07,
2460518.500000000, A.D. 2024-Jul-27 00:00:00.0000, -4.346527152917604E+08, 1.851708625067835E+08, -3.954780762313560E+07,
2460525.500000000, A.D. 2024-Aug-03 00:00:00.0000, -4.392766090252932E+08, 1.766367531121176E+08, -3.800999724813387E+07,
2460532.500000000, A.D. 2024-Aug-10 00:00:00.0000, -4.437015016776415E+08, 1.680225871188825E+08, -3.645496542528844E+07,
2460539.500000000, A.D. 2024-Aug-17 00:00:00.0000, -4.479264836927691E+08, 1.593326823780845E+08, -3.488350651457407E+07,
2460546.500000000, A.D. 2024-Aug-24 00:00:00.0000, -4.519507314896386E+08, 1.505713386797470E+08, -3.329641253583304E+07,
2460553.500000000, A.D. 2024-Aug-31 00:00:00.0000, -4.557735056372010E+08, 1.417428364555159E+08, -3.169447300550313E+07,
2460560.500000000, A.D. 2024-Sep-07 00:00:00.0000, -4.593941485592590E+08, 1.328514355118725E+08, -3.007847483676124E+07,
2460567.500000000, A.D. 2024-Sep-14 00:00:00.0000, -4.628120816852967E+08, 1.239013747874974E+08, -2.844920222919360E+07,
2460574.500000000, A.D. 2024-Sep-21 00:00:00.0000, -4.660268040773151E+08, 1.148968735444302E+08, -2.680743632781671E+07,
2460581.500000000, A.D. 2024-Sep-28 00:00:00.0000, -4.690378930221502E+08, 1.058421307628359E+08, -2.515395487025055E+07,
2460588.500000000, A.D. 2024-Oct-05 00:00:00.0000, -4.718450029199446E+08, 9.674132273926306E+07, -2.348953215789845E+07,
2460595.500000000, A.D. 2024-Oct-12 00:00:00.0000, -4.744478628278335E+08, 8.759860186520272E+07, -2.181493907356529E+07,
2460602.500000000, A.D. 2024-Oct-19 00:00:00.0000, -4.768462744099563E+08, 7.841809631091304E+07, -2.013094300649401E+07,
2460609.500000000, A.D. 2024-Oct-26 00:00:00.0000, -4.790401103276678E+08, 6.920390981012812E+07, -1.843830774704694E+07,
2460616.500000000, A.D. 2024-Nov-02 00:00:00.0000, -4.810293128133758E+08, 5.996012139509316E+07, -1.673779338630668E+07,
2460623.500000000, A.D. 2024-Nov-09 00:00:00.0000, -4.828138923314396E+08, 5.069078510039999E+07, -1.503015622718963E+07,
2460630.500000000, A.D. 2024-Nov-16 00:00:00.0000, -4.843939263001031E+08, 4.139992963353983E+07, -1.331614870884703E+07,
2460637.500000000, A.D. 2024-Nov-23 00:00:00.0000, -4.857695578274072E+08, 3.209155795996174E+07, -1.159651935217903E+07,
2460644.500000000, A.D. 2024-Nov-30 00:00:00.0000, -4.869409942526287E+08, 2.276964675777054E+07, -9.872012748501521E+06,
2460651.500000000, A.D. 2024-Dec-07 00:00:00.0000, -4.879085050734459E+08, 1.343814616052952E+07, -8.143369594896351E+06,
2460658.500000000, A.D. 2024-Dec-14 00:00:00.0000, -4.886724199468929E+08, 4.100981009785634E+06, -6.411326612500200E+06,
2460665.500000000, A.D. 2024-Dec-21 00:00:00.0000, -4.892331290828118E+08, -5.237947626140369E+06, -4.676616236008506E+06,
2460672.500000000, A.D. 2024-Dec-28 00:00:00.0000, -4.895910840585753E+08, -1.457476363641844E+07, -2.939966497368206E+06,
2460679.500000000, A.D. 2025-Jan-04 00:00:00.0000, -4.897467964575555E+08, -2.390561737979089E+07, -1.202101146978986E+06,
2460686.500000000, A.D. 2025-Jan-11 00:00:00.0000, -4.897008361505986E+08, -3.322668586648421E+07, 5.362602910701428E+05,
2460693.500000000, A.D. 2025-Jan-18 00:00:00.0000, -4.894538301366068E+08, -4.253417253161567E+07, 2.274402539296659E+06,
2460700.500000000, A.D. 2025-Jan-25 00:00:00.0000, -4.890064616991231E+08, -5.182430707700389E+07, 4.011614602025315E+06,
2460707.500000000, A.D. 2025-Feb-01 00:00:00.0000, -4.883594696895990E+08, -6.109334541323567E+07, 5.747189796231493E+06,
2460714.500000000, A.D. 2025-Feb-08 00:00:00.0000, -4.875136478786393E+08, -7.033756968396902E+07, 7.480425774887927E+06,
$$EOE